NORAD_CAT_ID,OBJECT_NAME,OBJECT_TYPE,EPOCH,MEAN_MOTION,ECCENTRICITY,INCLINATION,RA_OF_ASC_NODE,ARG_OF_PERICENTER,MEAN_ANOMALY,BSTAR,MEAN_MOTION_DOT,MEAN_MOTION_DDOT,TLE_LINE0,TLE_LINE1,TLE_LINE2,SEMIMAJOR_AXIS,PERIOD,APOGEE,PERIGEE,DECAYED
53719.0,STARLINK-4644,PAYLOAD,2024-08-18 05:53:36,15.08845447,0.0001705,53.2154,255.5881,84.2617,275.8569,-1.0979e-05,-4.63e-06,0.0,0 STARLINK-4644,1 53719U 22107V   24231.24556612 -.00000463  00000-0 -10979-4 0  9995,2 53719  53.2154 255.5881 0001705  84.2617 275.8569 15.08845447109022,6917.864,95.437,540.908,538.549,0.0
53719.0,STARLINK-4644,PAYLOAD,2024-08-18 10:39:46,15.08845162,0.0001649,53.2163,254.6961,77.6513,282.4664,1.813e-05,1e-08,0.0,0 STARLINK-4644,1 53719U 22107V   24231.44428950  .00000001  00000-0  18130-4 0  9993,2 53719  53.2163 254.6961 0001649  77.6513 282.4664 15.08845162108583,6917.865,95.437,540.87,538.589,0.0
53719.0,STARLINK-4644,PAYLOAD,2024-08-19 00:58:15,15.08838358,0.0001704,53.2166,252.0204,80.8509,279.2676,2.0992e-05,4.6e-07,0.0,0 STARLINK-4644,1 53719U 22107V   24232.04045216  .00000046  00000-0  20992-4 0  9998,2 53719  53.2166 252.0204 0001704  80.8509 279.2676 15.08838358108677,6917.885,95.438,540.929,538.572,0.0
53719.0,STARLINK-4644,PAYLOAD,2024-08-19 08:55:10,15.08836978,0.000168,53.2163,250.5334,80.0424,280.0757,-1.5218e-07,-2.9e-06,0.0,0 STARLINK-4644,1 53719U 22107V   24232.37165354 -.00000290  00000-0 -15218-6 0  9990,2 53719  53.2163 250.5334 0001680  80.0424 280.0757 15.08836978109196,6917.89,95.438,540.917,538.592,0.0
53719.0,STARLINK-4644,PAYLOAD,2024-08-20 10:21:20,15.08844432,0.0001566,53.2161,245.7754,87.1652,272.9519,0.00010473,1.379e-05,0.0,0 STARLINK-4644,1 53719U 22107V   24233.43148562  .00001379  00000-0  10473-3 0  9992,2 53719  53.2161 245.7754 0001566  87.1652 272.9519 15.08844432108885,6917.867,95.437,540.815,538.649,0.0
53719.0,STARLINK-4644,PAYLOAD,2024-08-21 07:01:21,15.08838611,0.0001571,53.2156,241.9089,88.7308,271.3864,7.4399e-05,8.96e-06,0.0,0 STARLINK-4644,1 53719U 22107V   24234.29261074  .00000896  00000-0  74399-4 0  9992,2 53719  53.2156 241.9089 0001571  88.7308 271.3864 15.08838611109013,6917.885,95.438,540.836,538.663,0.0
